OPTICUBE 04             
1 41851U 16067D   24175.94474455  .00003724  00000+0  28215-3 0  9996
2 41851  98.0760 341.1635 0018325  35.1507 325.0922 15.02809457416256
AEROCUBE 8D             
1 41852U 16067E   24175.99084914  .00005936  00000+0  39103-3 0  9994
2 41852  98.1079 345.6066 0006298  89.0299 271.1649 15.07919043416424
AEROCUBE 8C             
1 41853U 16067F   24175.93823907  .00006316  00000+0  41608-3 0  9998
2 41853  98.0892 344.1131 0008012  25.7519 334.4105 15.07873186416407
PROMETHEUS 2-1          
1 41854U 16067G   24176.48227796  .00014276  00000+0  71884-3 0  9997
2 41854  98.0998 352.1575 0012581  37.5551 322.6557 15.17251550416843
PROMETHEUS 2-3          
1 41855U 16067H   24176.01704413  .00014359  00000+0  72427-3 0  9999
2 41855  98.0927 351.1421 0010905  49.5024 310.7156 15.17207202416771
DIDO-2                  
1 42000U 17008BE  24176.21646679  .00377195  59053-4  92322-3 0  9992
2 42000  97.1277 238.5203 0004479 196.0777 164.0359 15.96126837409925
AALTO-1                 
1 42775U 17036L   24175.85078662  .00102668  00000+0  85875-3 0  9991
2 42775  97.1003 205.5754 0007897 159.2809 200.8776 15.69649745390154
URSA MAIOR              
1 42776U 17036M   24176.08405513  .00900960  44044-3  11842-2 0  9990
2 42776  97.0908 210.8693 0010142 203.6253 156.4565 16.06873189390518
CORVUS BC2              
1 42846U 17042X   24176.47135986  .00003790  00000+0  32706-3 0  9990
2 42846  97.3748   1.1676 0009421  44.9546 315.2438 14.97790196378538
CORVUS BC1              
1 42847U 17042Y   24176.16446394  .00002715  00000+0  23478-3 0  9997
2 42847  97.3725   1.2825 0008692  39.7402 320.4457 14.97935367378500
MIRATA                  
1 43015U 17073C   24176.57199013  .00014961  00000+0  70347-3 0  9990
2 43015  97.5937  61.2316 0167477 235.3458 123.1887 15.08027243357441
MAKERSAT 0              
1 43016U 17073D   24175.63483271  .00006979  00000+0  39936-3 0  9998
2 43016  97.5803  54.4430 0193200 260.7041  97.2290 14.98484601356876
GOMX-4B                 
1 43196U 18015E   24176.01143192  .00055576  00000+0  57379-3 0  9990
2 43196  97.6055 350.1529 0006704 274.6490  85.4002 15.64593058356594
GOMX-4A                 
1 43197U 18015F   24176.51608125  .00116640  00000+0  67825-3 0  9995
2 43197  97.5948 355.9637 0006513 251.0097 109.0463 15.78124014357039
CICERO 10               
1 43690U 18088A   24176.07217818  .00335996  38772-4  12598-2 0  9994
2 43690  85.0036 174.2398 0008664 181.2108 178.9151 15.87762225313289
SIRION PATHFINDER-2     
1 43759U 18099B   24175.88506126  .00004528  00000+0  34190-3 0  9998
2 43759  97.5294 231.8404 0009016 259.5624 100.4586 15.02861712303516
CORVUS BC4              
1 43767U 18099K   24175.72148530  .00003255  00000+0  25163-3 0  9997
2 43767  97.5098 228.8834 0009311 334.9447  25.1325 15.02155995303376
MOVE-II                 
1 43780U 18099Y   24175.75808573  .00017341  00000+0  90269-3 0  9995
2 43780  97.5210 238.6850 0004750 317.4832  42.6033 15.16077949303928
SPACEBEE-7              
1 43816U 18099BL  24175.75689857  .00010847  00000+0  63777-3 0  9995
2 43816  97.5479 239.3766 0008494 259.2841 100.7433 15.11817828303407
SPACEBEE-6              
1 43818U 18099BN  24175.78332603  .00029318  00000+0  12148-2 0  9992
2 43818  97.5403 244.8624 0007534 252.5093 107.5321 15.23833663303914
SHIELDS 1               
1 43850U 18104B   24175.82517249  .00013709  00000+0  36458-3 0  9999
2 43850  85.0238 278.6025 0011735  55.4207 304.8149 15.38021088307182
SONATE                  
1 44400U 19038Q   24175.92060844  .00019545  00000+0  58451-3 0  9994
2 44400  97.7115 170.3167 0018180  84.9362 275.3954 15.34445368275113
LUCKY-7                 
1 44406U 19038W   24175.90947867  .00038379  00000+0  81658-3 0  9998
2 44406  97.7008 174.5032 0014971  73.4404 286.8486 15.44754199275406
DUCHIFAT-3              
1 44854U 19089C   24175.90662274  .00014283  00000+0  71746-3 0  9992
2 44854  36.9582   8.2134 0004425 148.1714 211.9301 15.16648674249223
M2 PATHFINDER           
1 45727U 20037E   24176.06973935  .00002461  00000+0  21748-3 0  9996
2 45727  97.7764 352.4675 0012374  99.9842 260.2777 14.97216745216979
NETSAT-4                
1 46504U 20068U   24175.87260545  .00009281  00000+0  49463-3 0  9999
2 46504  97.8067 133.1936 0009264 352.9447   7.1653 15.15389147205181
NETSAT-3                
1 46505U 20068V   24176.18989597  .00008322  00000+0  45124-3 0  9995
2 46505  97.8038 133.0179 0008827   1.0586 359.0662 15.14814744205227
NETSAT-1                
1 46506U 20068W   24175.91696074  .00006250  00000+0  35651-3 0  9993
2 46506  97.8060 132.1967 0008177  13.6468 346.4982 15.13111118205144
NETSAT-2                
1 46507U 20068X   24176.41841842  .00009495  00000+0  50736-3 0  9990
2 46507  97.8051 133.3834 0007689  19.5726 340.5799 15.15302287205210
WILDTRACKCUBE-SIMBA     
1 47941U 21022K   24176.53837322  .00012075  00000+0  53484-3 0  9996
2 47941  97.4599  73.2412 0017429 116.0809 244.2223 15.21646941179585
BEESAT-6                
1 47957U 21022AB  24175.72839187  .00386609  00000+0  22503-2 0  9998
2 47957  97.4275  84.5860 0011149 110.8869 249.3591 15.77332110180099
SMOG-1                  
1 47964U 21022AJ  24175.73220181  .00238425  00000+0  18778-2 0  9996
2 47964  97.4585  87.6319 0010810  99.6876 260.5608 15.70668106179261
BCCSAT-1                
1 48041U 21022AK  24176.16217038  .00078544  00000+0  13780-2 0  9990
2 48041  97.4618  83.5467 0010242  85.3657 274.8764 15.50219897179013
BEESAT-7                
1 48084U 21022AN  24176.17605762  .00150119  00000+0  15567-2 0  9997
2 48084  97.4559  84.8291 0011476  98.3243 261.9318 15.64105954178854
BEESAT-8                
1 48085U 21022AP  24176.53165207  .00024212  00000+0  75643-3 0  9999
2 48085  97.4766  78.6876 0014838  99.3071 260.9849 15.33063667179006
LEDSAT                  
1 49069U 21073D   24176.14176785  .00014363  00000+0  57475-3 0  9997
2 49069  97.4371 247.2270 0017932 256.3484 103.5757 15.25035594157515
SITRO-AIS 5 (KATYS)     
1 57176U 23091L   24176.52066518  .00006559  00000+0  42149-3 0  9991
2 57176  97.6112 228.6405 0019301  97.9675 262.3745 15.08614223 54604
SITRO-AIS 6 (CHIRKIN)   
1 57192U 23091AC  24176.50553855  .00007466  00000+0  47848-3 0  9991
2 57192  97.6108 228.6505 0018884  97.8400 262.4973 15.08671957 54609
SITRO-AIS 8 (ANOKHIN)   
1 57193U 23091AD  24176.47187578  .00006821  00000+0  43361-3 0  9993
2 57193  97.6115 228.6871 0018974  98.8649 261.4729 15.09001696 54606
SITRO-AIS 7 (FARTUSHNIY)
1 57194U 23091AE  24176.51077311  .00007265  00000+0  46628-3 0  9994
2 57194  97.6105 228.6371 0018812  98.3780 261.9582 15.08627720 54606
SITRO-AIS 10 (BURDAEV)  
1 57199U 23091AK  24176.49972403  .00008786  00000+0  53121-3 0  9997
2 57199  97.6126 229.6376 0013714  88.6566 271.6235 15.10818503 54663
SITRO-AIS 9 (SHCHUKIN)  
1 57201U 23091AM  24176.49811547  .00008864  00000+0  53613-3 0  9995
2 57201  97.6122 229.6161 0013677  88.5819 271.6977 15.10804822 54665
SITRO-AIS 12 (SMIRENNIY)
1 57204U 23091AQ  24176.45968584  .00007625  00000+0  45938-3 0  9993
2 57204  97.6130 229.7118 0013694  83.6814 276.5975 15.10995019 54661
SITRO-AIS 11 (SHEFFER)  
1 57208U 23091AU  24176.51118107  .00008571  00000+0  51468-3 0  9998
2 57208  97.6125 229.7863 0013382  83.7435 276.5318 15.11077351 54673
SITRO-AIS 29            
1 59052U 24039B   24176.49422809  .00018181  00000+0  66170-3 0  9998
2 59052  97.3925 138.4377 0017731 181.3128 178.8068 15.28132425 17711
SITRO-AIS 30            
1 59053U 24039C   24176.49402807  .00017296  00000+0  63055-3 0  9990
2 59053  97.3922 138.4342 0017789 182.2544 177.8618 15.28085666 17709
SITRO-AIS 31            
1 59054U 24039D   24176.55225197  .00017470  00000+0  63437-3 0  9991
2 59054  97.3923 138.5093 0017710 181.8289 178.2889 15.28216929 17736
SITRO-AIS 33            
1 59055U 24039E   24176.54363717  .00016443  00000+0  59497-3 0  9992
2 59055  97.3925 138.5253 0017426 182.3657 177.7504 15.28350303 17728
SITRO-AIS 35            
1 59056U 24039F   24176.54004163  .00017089  00000+0  61782-3 0  9997
2 59056  97.3924 138.5278 0017191 182.5209 177.5947 15.28374022 17722
SITRO-AIS 32            
1 59057U 24039G   24176.54666656  .00017842  00000+0  64726-3 0  9997
2 59057  97.3926 138.5203 0017252 182.7063 177.4086 15.28250378 17721
SITRO-AIS 34            
1 59058U 24039H   24176.54329328  .00017474  00000+0  63278-3 0  9992
2 59058  97.3927 138.5268 0017392 182.6692 177.4458 15.28312080 17728
SITRO-AIS 36            
1 59059U 24039J   24176.53553115  .00017398  00000+0  62772-3 0  9998
2 59059  97.3923 138.5342 0016944 182.5970 177.5185 15.28441275 17725
SITRO-AIS 49            
1 59060U 24039K   24176.53561040  .00017361  00000+0  62696-3 0  9991
2 59060  97.3923 138.5340 0017055 182.1713 177.9455 15.28409191 17725
SITRO-AIS 50            
1 59061U 24039L   24176.52667666  .00016174  00000+0  58139-3 0  9990
2 59061  97.3923 138.5449 0016911 182.2853 177.8313 15.28579079 17727
SITRO-AIS 51            
1 59062U 24039M   24176.52631494  .00017271  00000+0  62093-3 0  9994
2 59062  97.3923 138.5460 0016928 182.1306 177.9864 15.28558315 17723
SITRO-AIS 52            
1 59063U 24039N   24176.52011544  .00018235  00000+0  65364-3 0  9998
2 59063  97.3924 138.5551 0016765 182.0081 178.1094 15.28646588 17722
SITRO-AIS 25            
1 59066U 24039R   24176.49740511  .00005321  00000+0  51120-3 0  9997
2 59066  95.4035 102.3130 0169854 318.5398  40.3034 14.82973762 17195
SITRO-AIS 26            
1 59067U 24039S   24176.49707096  .00005166  00000+0  49697-3 0  9992
2 59067  95.4034 102.3126 0169756 318.5708  40.2740 14.82945528 17198
SITRO-AIS 27            
1 59068U 24039T   24176.55458734  .00005755  00000+0  55140-3 0  9996
2 59068  95.4036 102.3705 0169371 318.1999  40.6384 14.83111559 17205
